STARLETTE               
1 07646U 75010A   24324.94071752 -.00000111  00000+0  24632-4 0  9990
2 07646  49.8237 211.2392 0205615 326.0024  32.7835 13.82337607515104
LAGEOS 1                
1 08820U 76039A   24324.24115972  .00000008  00000+0  00000+0 0  9995
2 08820 109.8535 342.4090 0044016  65.1053 323.6712  6.38664902876423
AJISAI (EGS)            
1 16908U 86061A   24325.49709170 -.00000109  00000+0 -82427-4 0  9996
2 16908  50.0073 111.4680 0011441 159.2438 248.7768 12.44509166409301
COSMOS 1989 (ETALON 1)  
1 19751U 89001C   24325.43245934  .00000017  00000+0  00000+0 0  9997
2 19751  64.6295  91.8677 0023717 216.1484 112.6158  2.13156086279207
COSMOS 2024 (ETALON 2)  
1 20026U 89039C   24325.50514226 -.00000051  00000+0  00000+0 0  9995
2 20026  65.2640 330.2283 0019840 216.6434 226.8960  2.13204437276266
LAGEOS 2                
1 22195U 92070B   24325.23854024 -.00000009  00000+0  00000+0 0  9999
2 22195  52.6555 269.3826 0137375 295.9699 214.4145  6.47293748758461
STELLA                  
1 22824U 93061B   24325.48178337 -.00000028  00000+0  70927-5 0  9994
2 22824  98.8576  14.0370 0007435 102.8771  14.7328 14.27441967623082
LARETS                  
1 27944U 03042F   24325.46550303  .00000202  00000+0  48302-4 0  9991
2 27944  98.3381 107.2726 0012936  32.5741 327.6257 14.63646746129515
LARES                   
1 38077U 12006A   24324.39916483 -.00000039  00000+0 -10732-5 0  9993
2 38077  69.4888 194.0377 0010842 233.9459 126.0563 12.54931757584959
LARES-2                 
1 53105U 22080A   24323.49733123  .00000018  00000+0  00000+0 0  9999
2 53105  70.1387 142.7797 0004865 102.9003 257.2172  6.38965302 54880
